[{"OBJECT_NAME":"ONEWEB-0366","OBJECT_ID":"2021-090P","EPOCH":"2025-09-03T05:50:36.794688","MEAN_MOTION":13.14521431,"ECCENTRICITY":0.00019167,"INCLINATION":87.9086,"RA_OF_ASC_NODE":346.8437,"ARG_OF_PERICENTER":97.3329,"MEAN_ANOMALY":262.8019,"EPHEMERIS_TYPE":0,"CLASSIFICATION_TYPE":"U","NORAD_CAT_ID":49292,"ELEMENT_SET_NO":999,"REV_AT_EPOCH":18986,"BSTAR":-0.010828579,"MEAN_MOTION_DOT":-4.001e-5,"MEAN_MOTION_DDOT":0},{"OBJECT_NAME":"ONEWEB-0367","OBJECT_ID":"2021-090Q","EPOCH":"2025-09-03T04:42:43.216128","MEAN_MOTION":13.20773234,"ECCENTRICITY":0.00017148,"INCLINATION":87.9297,"RA_OF_ASC_NODE":331.6409,"ARG_OF_PERICENTER":101.4829,"MEAN_ANOMALY":258.6497,"EPHEMERIS_TYPE":0,"CLASSIFICATION_TYPE":"U","NORAD_CAT_ID":49293,"ELEMENT_SET_NO":999,"REV_AT_EPOCH":19194,"BSTAR":0.00016244198,"MEAN_MOTION_DOT":7.9e-7,"MEAN_MOTION_DDOT":0},{"OBJECT_NAME":"ONEWEB-0368","OBJECT_ID":"2021-090R","EPOCH":"2025-09-03T05:53:09.622464","MEAN_MOTION":13.2077087,"ECCENTRICITY":0.00021496,"INCLINATION":87.9287,"RA_OF_ASC_NODE":331.6672,"ARG_OF_PERICENTER":76.6314,"MEAN_ANOMALY":283.5059,"EPHEMERIS_TYPE":0,"CLASSIFICATION_TYPE":"U","NORAD_CAT_ID":49294,"ELEMENT_SET_NO":999,"REV_AT_EPOCH":19310,"BSTAR":9.2097185e-5,"MEAN_MOTION_DOT":5.0e-7,"MEAN_MOTION_DDOT":0},{"OBJECT_NAME":"ONEWEB-0369","OBJECT_ID":"2021-090S","EPOCH":"2025-09-02T18:15:07.403040","MEAN_MOTION":13.19726867,"ECCENTRICITY":0.00017096,"INCLINATION":87.9282,"RA_OF_ASC_NODE":2.1235,"ARG_OF_PERICENTER":96.9487,"MEAN_ANOMALY":263.1841,"EPHEMERIS_TYPE":0,"CLASSIFICATION_TYPE":"U","NORAD_CAT_ID":49295,"ELEMENT_SET_NO":999,"REV_AT_EPOCH":18850,"BSTAR":-6.2284133e-5,"MEAN_MOTION_DOT":-1.2e-7,"MEAN_MOTION_DDOT":0},{"OBJECT_NAME":"ONEWEB-0370","OBJECT_ID":"2021-090T","EPOCH":"2025-09-02T23:29:04.577280","MEAN_MOTION":13.2077305,"ECCENTRICITY":0.000178,"INCLINATION":87.9297,"RA_OF_ASC_NODE":331.6918,"ARG_OF_PERICENTER":109.6454,"MEAN_ANOMALY":250.4872,"EPHEMERIS_TYPE":0,"CLASSIFICATION_TYPE":"U","NORAD_CAT_ID":49296,"ELEMENT_SET_NO":999,"REV_AT_EPOCH":19195,"BSTAR":5.1275207e-5,"MEAN_MOTION_DOT":3.4e-7,"MEAN_MOTION_DDOT":0},{"OBJECT_NAME":"ONEWEB-0371","OBJECT_ID":"2021-090U","EPOCH":"2025-09-03T03:32:21.983424","MEAN_MOTION":13.1972392,"ECCENTRICITY":0.00016746,"INCLINATION":87.9279,"RA_OF_ASC_NODE":2.0363,"ARG_OF_PERICENTER":99.7019,"MEAN_ANOMALY":260.4302,"EPHEMERIS_TYPE":0,"CLASSIFICATION_TYPE":"U","NORAD_CAT_ID":49297,"ELEMENT_SET_NO":999,"REV_AT_EPOCH":18859,"BSTAR":-5.253091e-6,"MEAN_MOTION_DOT":1.1e-7,"MEAN_MOTION_DDOT":0},{"OBJECT_NAME":"ONEWEB-0372","OBJECT_ID":"2021-090V","EPOCH":"2025-09-03T04:40:15.206880","MEAN_MOTION":13.2077109,"ECCENTRICITY":0.0001837,"INCLINATION":87.9287,"RA_OF_ASC_NODE":331.6528,"ARG_OF_PERICENTER":96.9862,"MEAN_ANOMALY":263.148,"EPHEMERIS_TYPE":0,"CLASSIFICATION_TYPE":"U","NORAD_CAT_ID":49298,"ELEMENT_SET_NO":999,"REV_AT_EPOCH":19195,"BSTAR":1.9183253e-5,"MEAN_MOTION_DOT":2.1e-7,"MEAN_MOTION_DDOT":0},{"OBJECT_NAME":"ONEWEB-0373","OBJECT_ID":"2021-090W","EPOCH":"2025-09-03T05:19:03.956448","MEAN_MOTION":13.20769952,"ECCENTRICITY":0.00019738,"INCLINATION":87.9291,"RA_OF_ASC_NODE":331.6607,"ARG_OF_PERICENTER":100.2813,"MEAN_ANOMALY":259.8543,"EPHEMERIS_TYPE":0,"CLASSIFICATION_TYPE":"U","NORAD_CAT_ID":49299,"ELEMENT_SET_NO":999,"REV_AT_EPOCH":19314,"BSTAR":-4.2373486e-5,"MEAN_MOTION_DOT":-4.0e-8,"MEAN_MOTION_DDOT":0},{"OBJECT_NAME":"ONEWEB-0374","OBJECT_ID":"2021-090X","EPOCH":"2025-09-03T00:03:31.290336","MEAN_MOTION":13.14504856,"ECCENTRICITY":0.00023395,"INCLINATION":87.9087,"RA_OF_ASC_NODE":346.8681,"ARG_OF_PERICENTER":90.817,"MEAN_ANOMALY":269.3228,"EPHEMERIS_TYPE":0,"CLASSIFICATION_TYPE":"U","NORAD_CAT_ID":49300,"ELEMENT_SET_NO":999,"REV_AT_EPOCH":18983,"BSTAR":-0.00046074819,"MEAN_MOTION_DOT":-1.58e-6,"MEAN_MOTION_DDOT":0},{"OBJECT_NAME":"ONEWEB-0375","OBJECT_ID":"2021-090Y","EPOCH":"2025-09-02T23:33:36.802080","MEAN_MOTION":13.20773605,"ECCENTRICITY":0.00024979,"INCLINATION":87.9294,"RA_OF_ASC_NODE":331.6876,"ARG_OF_PERICENTER":99.1913,"MEAN_ANOMALY":260.9503,"EPHEMERIS_TYPE":0,"CLASSIFICATION_TYPE":"U","NORAD_CAT_ID":49301,"ELEMENT_SET_NO":999,"REV_AT_EPOCH":19261,"BSTAR":0.00010868766,"MEAN_MOTION_DOT":5.7e-7,"MEAN_MOTION_DDOT":0},{"OBJECT_NAME":"ONEWEB-0376","OBJECT_ID":"2021-090Z","EPOCH":"2025-09-03T01:40:55.600608","MEAN_MOTION":13.19727266,"ECCENTRICITY":0.00015453,"INCLINATION":87.9281,"RA_OF_ASC_NODE":2.0333,"ARG_OF_PERICENTER":94.074,"MEAN_ANOMALY":266.0569,"EPHEMERIS_TYPE":0,"CLASSIFICATION_TYPE":"U","NORAD_CAT_ID":49302,"ELEMENT_SET_NO":999,"REV_AT_EPOCH":18858,"BSTAR":0.00022706207,"MEAN_MOTION_DOT":1.04e-6,"MEAN_MOTION_DDOT":0},{"OBJECT_NAME":"ONEWEB-0377","OBJECT_ID":"2021-090AA","EPOCH":"2025-09-02T23:13:23.645856","MEAN_MOTION":13.20771335,"ECCENTRICITY":0.00020166,"INCLINATION":87.9296,"RA_OF_ASC_NODE":331.6846,"ARG_OF_PERICENTER":106.1534,"MEAN_ANOMALY":253.9821,"EPHEMERIS_TYPE":0,"CLASSIFICATION_TYPE":"U","NORAD_CAT_ID":49303,"ELEMENT_SET_NO":999,"REV_AT_EPOCH":19260,"BSTAR":0.00012425797,"MEAN_MOTION_DOT":6.3e-7,"MEAN_MOTION_DDOT":0},{"OBJECT_NAME":"ONEWEB-0378","OBJECT_ID":"2021-090AB","EPOCH":"2025-09-03T05:12:25.172928","MEAN_MOTION":13.20773727,"ECCENTRICITY":0.00020266,"INCLINATION":87.9304,"RA_OF_ASC_NODE":331.6472,"ARG_OF_PERICENTER":97.7821,"MEAN_ANOMALY":262.3542,"EPHEMERIS_TYPE":0,"CLASSIFICATION_TYPE":"U","NORAD_CAT_ID":49304,"ELEMENT_SET_NO":999,"REV_AT_EPOCH":19190,"BSTAR":-0.0001065703,"MEAN_MOTION_DOT":-3.0e-7,"MEAN_MOTION_DDOT":0},{"OBJECT_NAME":"ONEWEB-0379","OBJECT_ID":"2021-090AC","EPOCH":"2025-09-03T05:25:30.192960","MEAN_MOTION":13.14503482,"ECCENTRICITY":0.00018521,"INCLINATION":87.9089,"RA_OF_ASC_NODE":346.8306,"ARG_OF_PERICENTER":95.8886,"MEAN_ANOMALY":264.2455,"EPHEMERIS_TYPE":0,"CLASSIFICATION_TYPE":"U","NORAD_CAT_ID":49305,"ELEMENT_SET_NO":999,"REV_AT_EPOCH":18986,"BSTAR":-0.00026110902,"MEAN_MOTION_DOT":-8.4e-7,"MEAN_MOTION_DDOT":0},{"OBJECT_NAME":"ONEWEB-0380","OBJECT_ID":"2021-090AD","EPOCH":"2025-09-03T03:25:32.741184","MEAN_MOTION":13.19723755,"ECCENTRICITY":0.00019683,"INCLINATION":87.9276,"RA_OF_ASC_NODE":2.047,"ARG_OF_PERICENTER":102.7832,"MEAN_ANOMALY":257.352,"EPHEMERIS_TYPE":0,"CLASSIFICATION_TYPE":"U","NORAD_CAT_ID":49306,"ELEMENT_SET_NO":999,"REV_AT_EPOCH":18856,"BSTAR":-3.9734582e-5,"MEAN_MOTION_DOT":-3.0e-8,"MEAN_MOTION_DDOT":0},{"OBJECT_NAME":"ONEWEB-0381","OBJECT_ID":"2021-090AE","EPOCH":"2025-09-03T04:35:55.129920","MEAN_MOTION":13.20772453,"ECCENTRICITY":0.00021851,"INCLINATION":87.9293,"RA_OF_ASC_NODE":331.6498,"ARG_OF_PERICENTER":99.46,"MEAN_ANOMALY":260.678,"EPHEMERIS_TYPE":0,"CLASSIFICATION_TYPE":"U","NORAD_CAT_ID":49307,"ELEMENT_SET_NO":999,"REV_AT_EPOCH":19194,"BSTAR":0.00035652092,"MEAN_MOTION_DOT":1.58e-6,"MEAN_MOTION_DDOT":0},{"OBJECT_NAME":"ONEWEB-0382","OBJECT_ID":"2021-090AF","EPOCH":"2025-09-03T06:06:47.425248","MEAN_MOTION":13.2077062,"ECCENTRICITY":0.00022221,"INCLINATION":87.9289,"RA_OF_ASC_NODE":331.6281,"ARG_OF_PERICENTER":95.2355,"MEAN_ANOMALY":264.9032,"EPHEMERIS_TYPE":0,"CLASSIFICATION_TYPE":"U","NORAD_CAT_ID":49308,"ELEMENT_SET_NO":999,"REV_AT_EPOCH":19194,"BSTAR":0.00012211408,"MEAN_MOTION_DOT":6.3e-7,"MEAN_MOTION_DDOT":0}]
