ONEWEB-0366             
1 49292U 21090P   25246.24348142 -.00004001  00000+0 -10829-1 0  9992
2 49292  87.9086 346.8437 0001916  97.3329 262.8019 13.14521431189866
ONEWEB-0367             
1 49293U 21090Q   25246.19633352  .00000079  00000+0  16244-3 0  9995
2 49293  87.9297 331.6409 0001714 101.4829 258.6497 13.20773234191942
ONEWEB-0368             
1 49294U 21090R   25246.24525026  .00000050  00000+0  92097-4 0  9990
2 49294  87.9287 331.6672 0002149  76.6314 283.5059 13.20770870193103
ONEWEB-0369             
1 49295U 21090S   25245.76050235 -.00000012  00000+0 -62284-4 0  9997
2 49295  87.9282   2.1235 0001709  96.9487 263.1841 13.19726867188507
ONEWEB-0370             
1 49296U 21090T   25245.97852520  .00000034  00000+0  51275-4 0  9998
2 49296  87.9297 331.6918 0001780 109.6454 250.4872 13.20773050191951
ONEWEB-0371             
1 49297U 21090U   25246.14747666  .00000011  00000+0 -52531-5 0  9996
2 49297  87.9279   2.0363 0001674  99.7019 260.4302 13.19723920188597
ONEWEB-0372             
1 49298U 21090V   25246.19462045  .00000021  00000+0  19183-4 0  9992
2 49298  87.9287 331.6528 0001837  96.9862 263.1480 13.20771090191951
ONEWEB-0373             
1 49299U 21090W   25246.22157357 -.00000004  00000+0 -42373-4 0  9994
2 49299  87.9291 331.6607 0001973 100.2813 259.8543 13.20769952193140
ONEWEB-0374             
1 49300U 21090X   25246.00244549 -.00000158  00000+0 -46075-3 0  9995
2 49300  87.9087 346.8681 0002339  90.8170 269.3228 13.14504856189833
ONEWEB-0375             
1 49301U 21090Y   25245.98167595  .00000057  00000+0  10869-3 0  9995
2 49301  87.9294 331.6876 0002497  99.1913 260.9503 13.20773605192614
ONEWEB-0376             
1 49302U 21090Z   25246.07008797  .00000104  00000+0  22706-3 0  9991
2 49302  87.9281   2.0333 0001545  94.0740 266.0569 13.19727266188583
ONEWEB-0377             
1 49303U 21090AA  25245.96763479  .00000063  00000+0  12426-3 0  9996
2 49303  87.9296 331.6846 0002016 106.1534 253.9821 13.20771335192602
ONEWEB-0378             
1 49304U 21090AB  25246.21695802 -.00000030  00000+0 -10657-3 0  9990
2 49304  87.9304 331.6472 0002026  97.7821 262.3542 13.20773727191906
ONEWEB-0379             
1 49305U 21090AC  25246.22604390 -.00000084  00000+0 -26111-3 0  9995
2 49305  87.9089 346.8306 0001852  95.8886 264.2455 13.14503482189865
ONEWEB-0380             
1 49306U 21090AD  25246.14274006 -.00000003  00000+0 -39735-4 0  9992
2 49306  87.9276   2.0470 0001968 102.7832 257.3520 13.19723755188568
ONEWEB-0381             
1 49307U 21090AE  25246.19161030  .00000158  00000+0  35652-3 0  9992
2 49307  87.9293 331.6498 0002185  99.4600 260.6780 13.20772453191948
ONEWEB-0382             
1 49308U 21090AF  25246.25471557  .00000063  00000+0  12211-3 0  9999
2 49308  87.9289 331.6281 0002222  95.2355 264.9032 13.20770620191948
